{
  "type": "FeatureCollection",
  "features": [
    {
      "type": "Feature",
      "properties": {
        "norad_id": 66723,
        "name": "FLOCK 4H-20",
        "group": "last-30-days",
        "lat": 50.71096001382818,
        "lon": -104.74198582161357,
        "alt_km": 505.34837002042605,
        "timestamp": "2025-12-20T09:36:00.352500+00:00",
        "meta_object_name": "FLOCK 4H-20",
        "meta_object_id": "2025-276BK",
        "meta_epoch": "2025-12-20T04:17:24.412128",
        "meta_mean_motion": 15.18256797,
        "meta_eccentricity": 0.0002596,
        "meta_inclination": 97.4434,
        "meta_ra_of_asc_node": 65.8454,
        "meta_arg_of_pericenter": 179.8681,
        "meta_mean_anomaly": 180.2554,
        "meta_ephemeris_type": 0,
        "meta_classification_type": "U",
        "meta_norad_cat_id": 66723,
        "meta_element_set_no": 999,
        "meta_rev_at_epoch": 250,
        "meta_bstar": 0.00026187,
        "meta_mean_motion_dot": 5.297e-05,
        "meta_mean_motion_ddot": 0,
        "tle_line1": "1 66723U 25276BK  25354.17875477  .00005297  00000+0  26187-3 0  9990",
        "tle_line2": "2 66723  97.4434  65.8454 0002596 179.8681 180.2554 15.18256797  2504"
      },
      "geometry": {
        "type": "Point",
        "coordinates": [
          -104.74198582161357,
          50.71096001382818
        ]
      }
    },
    {
      "type": "Feature",
      "properties": {
        "norad_id": 66724,
        "name": "FLOCK 4H-21",
        "group": "last-30-days",
        "lat": 48.32031829465123,
        "lon": -105.50869289392585,
        "alt_km": 505.4950808180238,
        "timestamp": "2025-12-20T09:36:00.352512+00:00",
        "meta_object_name": "FLOCK 4H-21",
        "meta_object_id": "2025-276BL",
        "meta_epoch": "2025-12-20T04:16:46.728768",
        "meta_mean_motion": 15.18317621,
        "meta_eccentricity": 0.0002332,
        "meta_inclination": 97.44,
        "meta_ra_of_asc_node": 65.8332,
        "meta_arg_of_pericenter": 176.4825,
        "meta_mean_anomaly": 183.6426,
        "meta_ephemeris_type": 0,
        "meta_classification_type": "U",
        "meta_norad_cat_id": 66724,
        "meta_element_set_no": 999,
        "meta_rev_at_epoch": 250,
        "meta_bstar": 0.00022071,
        "meta_mean_motion_dot": 4.461e-05,
        "meta_mean_motion_ddot": 0,
        "tle_line1": "1 66724U 25276BL  25354.17831862  .00004461  00000+0  22071-3 0  9991",
        "tle_line2": "2 66724  97.4400  65.8332 0002332 176.4825 183.6426 15.18317621  2503"
      },
      "geometry": {
        "type": "Point",
        "coordinates": [
          -105.50869289392585,
          48.32031829465123
        ]
      }
    },
    {
      "type": "Feature",
      "properties": {
        "norad_id": 66725,
        "name": "FLOCK 4H-22",
        "group": "last-30-days",
        "lat": 64.67087788628166,
        "lon": 49.99590529454114,
        "alt_km": 507.6006342707633,
        "timestamp": "2025-12-20T09:36:00.352528+00:00",
        "meta_object_name": "FLOCK 4H-22",
        "meta_object_id": "2025-276BM",
        "meta_epoch": "2025-12-20T00:00:02.000160",
        "meta_mean_motion": 15.17442614,
        "meta_eccentricity": 0.0001501,
        "meta_inclination": 97.4388,
        "meta_ra_of_asc_node": 65.6273,
        "meta_arg_of_pericenter": 316.1404,
        "meta_mean_anomaly": 85.9729,
        "meta_ephemeris_type": 0,
        "meta_classification_type": "U",
        "meta_norad_cat_id": 66725,
        "meta_element_set_no": 999,
        "meta_rev_at_epoch": 149,
        "meta_bstar": 0.0013118,
        "meta_mean_motion_dot": 0.00026256,
        "meta_mean_motion_ddot": 0,
        "tle_line1": "1 66725U 25276BM  25354.00002315  .00026256  00000+0  13118-2 0  9994",
        "tle_line2": "2 66725  97.4388  65.6273 0001501 316.1404  85.9729 15.17442614  1491"
      },
      "geometry": {
        "type": "Point",
        "coordinates": [
          49.99590529454114,
          64.67087788628166
        ]
      }
    },
    {
      "type": "Feature",
      "properties": {
        "norad_id": 66726,
        "name": "FLOCK 4H-23",
        "group": "last-30-days",
        "lat": 47.96023493917551,
        "lon": 57.69425158723943,
        "alt_km": 512.1448639930304,
        "timestamp": "2025-12-20T09:36:00.352538+00:00",
        "meta_object_name": "FLOCK 4H-23",
        "meta_object_id": "2025-276BN",
        "meta_epoch": "2025-12-20T03:03:19.685952",
        "meta_mean_motion": 15.17195657,
        "meta_eccentricity": 0.0003365,
        "meta_inclination": 97.4452,
        "meta_ra_of_asc_node": 65.7655,
        "meta_arg_of_pericenter": 256.6929,
        "meta_mean_anomaly": 103.393,
        "meta_ephemeris_type": 0,
        "meta_classification_type": "U",
        "meta_norad_cat_id": 66726,
        "meta_element_set_no": 999,
        "meta_rev_at_epoch": 324,
        "meta_bstar": 0.00030628,
        "meta_mean_motion_dot": 6.021e-05,
        "meta_mean_motion_ddot": 0,
        "tle_line1": "1 66726U 25276BN  25354.12731118  .00006021  00000+0  30628-3 0  9992",
        "tle_line2": "2 66726  97.4452  65.7655 0003365 256.6929 103.3930 15.17195657  3245"
      },
      "geometry": {
        "type": "Point",
        "coordinates": [
          57.69425158723943,
          47.96023493917551
        ]
      }
    },
    {
      "type": "Feature",
      "properties": {
        "norad_id": 66727,
        "name": "FLOCK 4H-24",
        "group": "last-30-days",
        "lat": 56.00371588522905,
        "lon": 54.858713346241316,
        "alt_km": 510.1685851303737,
        "timestamp": "2025-12-20T09:36:00.352548+00:00",
        "meta_object_name": "FLOCK 4H-24",
        "meta_object_id": "2025-276BP",
        "meta_epoch": "2025-12-20T04:36:09.343584",
        "meta_mean_motion": 15.17300807,
        "meta_eccentricity": 0.0002771,
        "meta_inclination": 97.4452,
        "meta_ra_of_asc_node": 65.8347,
        "meta_arg_of_pericenter": 276.6003,
        "meta_mean_anomaly": 83.4915,
        "meta_ephemeris_type": 0,
        "meta_classification_type": "U",
        "meta_norad_cat_id": 66727,
        "meta_element_set_no": 999,
        "meta_rev_at_epoch": 325,
        "meta_bstar": 0.00028211,
        "meta_mean_motion_dot": 5.557e-05,
        "meta_mean_motion_ddot": 0,
        "tle_line1": "1 66727U 25276BP  25354.19177481  .00005557  00000+0  28211-3 0  9995",
        "tle_line2": "2 66727  97.4452  65.8347 0002771 276.6003  83.4915 15.17300807  3257"
      },
      "geometry": {
        "type": "Point",
        "coordinates": [
          54.858713346241316,
          56.00371588522905
        ]
      }
    },
    {
      "type": "Feature",
      "properties": {
        "norad_id": 66728,
        "name": "FLOCK 4H-25",
        "group": "last-30-days",
        "lat": 53.36786462413573,
        "lon": -103.82288168377245,
        "alt_km": 505.25375836632156,
        "timestamp": "2025-12-20T09:36:00.352559+00:00",
        "meta_object_name": "FLOCK 4H-25",
        "meta_object_id": "2025-276BQ",
        "meta_epoch": "2025-12-20T04:18:07.160256",
        "meta_mean_motion": 15.18186383,
        "meta_eccentricity": 0.0001632,
        "meta_inclination": 97.4407,
        "meta_ra_of_asc_node": 65.8366,
        "meta_arg_of_pericenter": 111.6925,
        "meta_mean_anomaly": 248.4483,
        "meta_ephemeris_type": 0,
        "meta_classification_type": "U",
        "meta_norad_cat_id": 66728,
        "meta_element_set_no": 999,
        "meta_rev_at_epoch": 253,
        "meta_bstar": 0.00036271,
        "meta_mean_motion_dot": 7.349e-05,
        "meta_mean_motion_ddot": 0,
        "tle_line1": "1 66728U 25276BQ  25354.17924954  .00007349  00000+0  36271-3 0  9995",
        "tle_line2": "2 66728  97.4407  65.8366 0001632 111.6925 248.4483 15.18186383  2530"
      },
      "geometry": {
        "type": "Point",
        "coordinates": [
          -103.82288168377245,
          53.36786462413573
        ]
      }
    },
    {
      "type": "Feature",
      "properties": {
        "norad_id": 66729,
        "name": "FLOCK 4H-26",
        "group": "last-30-days",
        "lat": 40.593815129919946,
        "lon": 59.58693674586758,
        "alt_km": 512.9719554837002,
        "timestamp": "2025-12-20T09:36:00.352569+00:00",
        "meta_object_name": "FLOCK 4H-26",
        "meta_object_id": "2025-276BR",
        "meta_epoch": "2025-12-20T01:30:18.544032",
        "meta_mean_motion": 15.17123736,
        "meta_eccentricity": 0.0003642,
        "meta_inclination": 97.4405,
        "meta_ra_of_asc_node": 65.6857,
        "meta_arg_of_pericenter": 273.2903,
        "meta_mean_anomaly": 86.7914,
        "meta_ephemeris_type": 0,
        "meta_classification_type": "U",
        "meta_norad_cat_id": 66729,
        "meta_element_set_no": 999,
        "meta_rev_at_epoch": 323,
        "meta_bstar": 0.00032555,
        "meta_mean_motion_dot": 6.391e-05,
        "meta_mean_motion_ddot": 0,
        "tle_line1": "1 66729U 25276BR  25354.06271463  .00006391  00000+0  32555-3 0  9991",
        "tle_line2": "2 66729  97.4405  65.6857 0003642 273.2903  86.7914 15.17123736  3238"
      },
      "geometry": {
        "type": "Point",
        "coordinates": [
          59.58693674586758,
          40.593815129919946
        ]
      }
    }
  ]
}